[{"OBJECT_NAME":"STARLINK-5367","OBJECT_ID":"2023-015BE","EPOCH":"2026-03-09T22:00:01.999584","MEAN_MOTION":15.08841276,"ECCENTRICITY":0.00017679,"INCLINATION":42.9996,"RA_OF_ASC_NODE":337.108,"ARG_OF_PERICENTER":269.051,"MEAN_ANOMALY":156.2561,"EPHEMERIS_TYPE":0,"CLASSIFICATION_TYPE":"U","NORAD_CAT_ID":55501,"ELEMENT_SET_NO":999,"REV_AT_EPOCH":578,"BSTAR":0.00075503686,"MEAN_MOTION_DOT":0.00011894,"MEAN_MOTION_DDOT":0},{"OBJECT_NAME":"COSMOS 2058","OBJECT_ID":"1990-010A","EPOCH":"2026-03-09T23:30:01.891584","MEAN_MOTION":15.11324867,"ECCENTRICITY":0.00093159,"INCLINATION":82.4669,"RA_OF_ASC_NODE":47.1427,"ARG_OF_PERICENTER":343.3032,"MEAN_ANOMALY":16.789,"EPHEMERIS_TYPE":0,"CLASSIFICATION_TYPE":"U","NORAD_CAT_ID":20465,"ELEMENT_SET_NO":999,"REV_AT_EPOCH":94228,"BSTAR":0.00029943939,"MEAN_MOTION_DOT":5.077e-5,"MEAN_MOTION_DDOT":0}]
